WREN-1                  
1 60478U 24149L   26158.20159278  .00020926  00000+0  50592-3 0  9993
2 60478  97.3761 242.2126 0002913 300.3549  59.7410 15.41170455100783
TOMORROW-S1             
1 60479U 24149M   26158.47367010  .00007977  00000+0  25602-3 0  9993
2 60479  97.3744 238.9778 0001018 286.3362  73.7768 15.32582592100603
FLOCK 4BE-18            
1 60480U 24149N   26158.47483914  .00017984  00000+0  42987-3 0  9991
2 60480  97.3720 242.1066 0002410 292.8248  67.2744 15.41546336100819
FLOCK 4BE-7             
1 60481U 24149P   26158.47237368  .00021829  00000+0  54964-3 0  9993
2 60481  97.3751 241.4615 0001497 293.1413  66.9675 15.39927375100753
TOMORROW-S2             
1 60485U 24149T   26158.50436750  .00008590  00000+0  27523-3 0  9998
2 60485  97.3814 239.4881 0001598 334.9116  25.2048 15.32609165100608
FLOCK 4BE-36            
1 60486U 24149U   26158.19230231  .00017261  00000+0  40097-3 0  9996
2 60486  97.3738 242.5036 0002220 312.1231  47.9827 15.42417946100814
FLOCK 4BE-25            
1 60487U 24149V   26158.20298424  .00013882  00000+0  36641-3 0  9992
2 60487  97.3794 241.2879 0000710 303.3854  56.7323 15.38580053100705
FLOCK 4BE-31            
1 60488U 24149W   26158.16704314  .00020502  00000+0  45564-3 0  9999
2 60488  97.3796 243.3080 0001224 323.5298  36.5866 15.43705861100836
FLOCK 4BE-20            
1 60489U 24149X   26158.48672510  .00014549  00000+0  39351-3 0  9998
2 60489  97.3688 240.4772 0002168 307.5743  52.5305 15.37810632100728
FLOCK 4BE-23            
1 60490U 24149Y   26158.21422278  .00013628  00000+0  37335-3 0  9992
2 60490  97.3774 240.5744 0002002 322.8587  37.2519 15.37429673100660
FLOCK 4BE-15            
1 60491U 24149Z   26158.20148463  .00084476  00000+0  11173-2 0  9993
2 60491  97.3682 243.2215 0001676 258.6199 101.4868 15.58046566100876
FLOCK 4BE-17            
1 60492U 24149AA  26158.21194571  .00016854  00000+0  43106-3 0  9993
2 60492  97.3771 241.5056 0001570 298.4651  61.6437 15.39503656100728
NUSAT-50 (NANCY ROMAN)  
1 60493U 24149AB  26158.48754514  .00009569  00000+0  33520-3 0  9996
2 60493  97.3782 239.8127 0002532 207.6190 152.4916 15.29688473100641
FLOCK 4BE-22            
1 60494U 24149AC  26158.46213413  .00016204  00000+0  39634-3 0  9999
2 60494  97.3730 241.9337 0002159 312.1320  47.9743 15.40872508100805
FLOCK 4BE-34            
1 60495U 24149AD  26158.21952060  .00015087  00000+0  36924-3 0  9998
2 60495  97.3770 242.5047 0002175 330.5544  29.5579 15.40870212100796
TYCHE                   
1 60496U 24149AE  26158.49606036  .00005222  00000+0  20648-3 0  9994
2 60496  97.3750 236.4418 0001033 348.4618  11.6596 15.25909294100428
FLOCK 4BE-32            
1 60497U 24149AF  26158.19442830  .00018892  00000+0  44729-3 0  9995
2 60497  97.3715 242.0165 0002258 317.8286  42.2787 15.41823926100790
NUSAT-48 (HENRIETTA LE*)
1 60498U 24149AG  26157.03798339  .00013471  00000+0  46719-3 0  9995
2 60498  97.3909 238.5951 0002883 333.9515  26.1580 15.29924928100430
FLOCK 4BE-30            
1 60499U 24149AH  26158.47781272  .00127776  00000+0  19390-2 0  9991
2 60499  97.3795 243.6882 0002712 240.8038 119.2945 15.54148192100260
NUSAT-49 (KLARA DAN VO*)
1 60500U 24149AJ  26157.14673221  .00012353  00000+0  42352-3 0  9990
2 60500  97.3774 238.5123 0002011  27.7139 332.4208 15.30320220100446
FLOCK 4BE-11            
1 60501U 24149AK  26158.19437380  .00019329  00000+0  44508-3 0  9996
2 60501  97.3702 242.2381 0002253 316.9076  43.1995 15.42656613100818
YAM-7                   
1 60504U 24149AN  26158.19293368  .00007781  00000+0  25685-3 0  9999
2 60504  97.3779 238.4843 0002736 358.1451   1.9780 15.31681907100520
FLOCK 4BE-24            
1 60505U 24149AP  26158.18140457  .00020513  00000+0  47138-3 0  9994
2 60505  97.3713 242.4768 0002679 329.3998  30.7093 15.42704974100824
LUR-1                   
1 60506U 24149AQ  26158.17210329  .00007707  00000+0  26814-3 0  9998
2 60506  97.3734 237.0741 0003679   4.0683 356.0587 15.29975760100446
TANAGER-1               
1 60507U 24149AR  26158.24958817  .00003133  00000+0  68553-4 0  9994
2 60507  97.2771 252.4986 0003458 344.3307  15.7834 15.44909546101505
EAGLEEYE                
1 60508U 24149AS  26158.22741424  .00088583  00000+0  75938-3 0  9993
2 60508  97.3716 251.0288 0002975 265.8021  94.2901 15.69128545101370
FLOCK 4BE-29            
1 60509U 24149AT  26158.19929882  .00018629  00000+0  41271-3 0  9993
2 60509  97.3804 243.9242 0001910 359.2732   0.8513 15.43819248100879
TRANSPORTER-11 OBJECT AU
1 60510U 24149AU  26158.18194352  .00015443  00000+0  38954-3 0  9995
2 60510  97.3725 241.8250 0002705 344.9942  15.1223 15.39945050100778
FLOCK 4BE-2             
1 60511U 24149AV  26158.51803071  .00057179  00000+0  95733-3 0  9998
2 60511  97.3829 245.5448 0002340 299.9996  60.1024 15.51683991101000
