OBJECT_NAME,OBJECT_ID,EPOCH,MEAN_MOTION,ECCENTRICITY,INCLINATION,RA_OF_ASC_NODE,ARG_OF_PERICENTER,MEAN_ANOMALY,EPHEMERIS_TYPE,CLASSIFICATION_TYPE,NORAD_CAT_ID,ELEMENT_SET_NO,REV_AT_EPOCH,BSTAR,MEAN_MOTION_DOT,MEAN_MOTION_DDOT
WREN-1,2024-149L,2026-06-07T04:50:17.616192,15.41170455,.0002913,97.3761,242.2126,300.3549,59.7410,0,U,60478,999,10078,.50592E-3,.20926E-3,0
TOMORROW-S1,2024-149M,2026-06-07T11:22:05.096640,15.32582592,.0001018,97.3744,238.9778,286.3362,73.7768,0,U,60479,999,10060,.25602E-3,.7977E-4,0
FLOCK 4BE-18,2024-149N,2026-06-07T11:23:46.101696,15.41546336,.000241,97.3720,242.1066,292.8248,67.2744,0,U,60480,999,10081,.42987E-3,.17984E-3,0
FLOCK 4BE-7,2024-149P,2026-06-07T11:20:13.085952,15.39927375,.0001497,97.3751,241.4615,293.1413,66.9675,0,U,60481,999,10075,.54964E-3,.21829E-3,0
TOMORROW-S2,2024-149T,2026-06-07T12:06:17.352000,15.32609165,.0001598,97.3814,239.4881,334.9116,25.2048,0,U,60485,999,10060,.27523E-3,.859E-4,0
FLOCK 4BE-36,2024-149U,2026-06-07T04:36:54.919584,15.42417946,.000222,97.3738,242.5036,312.1231,47.9827,0,U,60486,999,10081,.40097E-3,.17261E-3,0
FLOCK 4BE-25,2024-149V,2026-06-07T04:52:17.838336,15.38580053,.000071,97.3794,241.2879,303.3854,56.7323,0,U,60487,999,10070,.36641E-3,.13882E-3,0
FLOCK 4BE-31,2024-149W,2026-06-07T04:00:32.527296,15.43705861,.0001224,97.3796,243.3080,323.5298,36.5866,0,U,60488,999,10083,.45564E-3,.20502E-3,0
FLOCK 4BE-20,2024-149X,2026-06-07T11:40:53.048640,15.37810632,.0002168,97.3688,240.4772,307.5743,52.5305,0,U,60489,999,10072,.39351E-3,.14549E-3,0
FLOCK 4BE-23,2024-149Y,2026-06-07T05:08:28.848192,15.37429673,.0002002,97.3774,240.5744,322.8587,37.2519,0,U,60490,999,10066,.37335E-3,.13628E-3,0
FLOCK 4BE-15,2024-149Z,2026-06-07T04:50:08.272032,15.58046566,.0001676,97.3682,243.2215,258.6199,101.4868,0,U,60491,999,10087,.11173E-2,.84476E-3,0
FLOCK 4BE-17,2024-149AA,2026-06-07T05:05:12.109344,15.39503656,.000157,97.3771,241.5056,298.4651,61.6437,0,U,60492,999,10072,.43106E-3,.16854E-3,0
NUSAT-50 (NANCY ROMAN),2024-149AB,2026-06-07T11:42:03.900096,15.29688473,.0002532,97.3782,239.8127,207.6190,152.4916,0,U,60493,999,10064,.3352E-3,.9569E-4,0
FLOCK 4BE-22,2024-149AC,2026-06-07T11:05:28.388832,15.40872508,.0002159,97.3730,241.9337,312.1320,47.9743,0,U,60494,999,10080,.39634E-3,.16204E-3,0
FLOCK 4BE-34,2024-149AD,2026-06-07T05:16:06.579840,15.40870212,.0002175,97.3770,242.5047,330.5544,29.5579,0,U,60495,999,10079,.36924E-3,.15087E-3,0
TYCHE,2024-149AE,2026-06-07T11:54:19.615104,15.25909294,.0001033,97.3750,236.4418,348.4618,11.6596,0,U,60496,999,10042,.20648E-3,.5222E-4,0
FLOCK 4BE-32,2024-149AF,2026-06-07T04:39:58.605120,15.41823926,.0002258,97.3715,242.0165,317.8286,42.2787,0,U,60497,999,10079,.44729E-3,.18892E-3,0
NUSAT-48 (HENRIETTA LEAVITT),2024-149AG,2026-06-06T00:54:41.764896,15.29924928,.00028832,97.3909,238.5951,333.9515,26.1580,0,U,60498,999,10043,.46719318E-3,.13471E-3,0
FLOCK 4BE-30,2024-149AH,2026-06-07T11:28:03.019008,15.54148192,.0002712,97.3795,243.6882,240.8038,119.2945,0,U,60499,999,10026,.1939E-2,.127776E-2,0
NUSAT-49 (KLARA DAN VON NEUMANN),2024-149AJ,2026-06-06T03:31:17.662944,15.30320220,.00020112,97.3774,238.5123,27.7139,332.4208,0,U,60500,999,10044,.42351562E-3,.12353E-3,0
FLOCK 4BE-11,2024-149AK,2026-06-07T04:39:53.896320,15.42656613,.0002253,97.3702,242.2381,316.9076,43.1995,0,U,60501,999,10081,.44508E-3,.19329E-3,0
YAM-7,2024-149AN,2026-06-07T04:37:49.469952,15.31681907,.0002736,97.3779,238.4843,358.1451,1.9780,0,U,60504,999,10052,.25685E-3,.7781E-4,0
FLOCK 4BE-24,2024-149AP,2026-06-07T04:21:13.354848,15.42704974,.0002679,97.3713,242.4768,329.3998,30.7093,0,U,60505,999,10082,.47138E-3,.20513E-3,0
LUR-1,2024-149AQ,2026-06-07T04:07:49.724256,15.29975760,.0003679,97.3734,237.0741,4.0683,356.0587,0,U,60506,999,10044,.26814E-3,.7707E-4,0
TANAGER-1,2024-149AR,2026-06-07T05:59:24.417888,15.44909546,.0003458,97.2771,252.4986,344.3307,15.7834,0,U,60507,999,10150,.68553E-4,.3133E-4,0
EAGLEEYE,2024-149AS,2026-06-07T05:27:28.590336,15.69128545,.0002975,97.3716,251.0288,265.8021,94.2901,0,U,60508,999,10137,.75938E-3,.88583E-3,0
FLOCK 4BE-29,2024-149AT,2026-06-07T04:46:59.418048,15.43819248,.000191,97.3804,243.9242,359.2732,0.8513,0,U,60509,999,10087,.41271E-3,.18629E-3,0
TRANSPORTER-11 OBJECT AU,2024-149AU,2026-06-07T04:21:59.920128,15.39945050,.0002705,97.3725,241.8250,344.9942,15.1223,0,U,60510,999,10077,.38954E-3,.15443E-3,0
FLOCK 4BE-2,2024-149AV,2026-06-07T12:25:57.853344,15.51683991,.000234,97.3829,245.5448,299.9996,60.1024,0,U,60511,999,10100,.95733E-3,.57179E-3,0
